STARLINK-37224          
1 68671U 26077K   26112.54339029 -.00809584  00000+0 -57947-2 0  9996
2 68671  97.2837 343.5979 0001556 119.7028 240.4392 15.75837288  1819
